[{"OBJECT_NAME":"ONEWEB-0684","OBJECT_ID":"2023-068L","EPOCH":"2026-03-09T15:45:13.804992","MEAN_MOTION":13.15547893,"ECCENTRICITY":0.00026933,"INCLINATION":87.8945,"RA_OF_ASC_NODE":279.0523,"ARG_OF_PERICENTER":112.686,"MEAN_ANOMALY":247.4556,"EPHEMERIS_TYPE":0,"CLASSIFICATION_TYPE":"U","NORAD_CAT_ID":56720,"ELEMENT_SET_NO":999,"REV_AT_EPOCH":13616,"BSTAR":0.00025448697,"MEAN_MOTION_DOT":1.09e-6,"MEAN_MOTION_DDOT":0},{"OBJECT_NAME":"N-1 R\/B","OBJECT_ID":"1982-087B","EPOCH":"2026-03-09T22:29:49.861824","MEAN_MOTION":13.44762855,"ECCENTRICITY":0.01719382,"INCLINATION":44.6244,"RA_OF_ASC_NODE":29.4918,"ARG_OF_PERICENTER":90.226,"MEAN_ANOMALY":324.502,"EPHEMERIS_TYPE":0,"CLASSIFICATION_TYPE":"U","NORAD_CAT_ID":13493,"ELEMENT_SET_NO":999,"REV_AT_EPOCH":13795,"BSTAR":8.8296701e-5,"MEAN_MOTION_DOT":-5.5e-7,"MEAN_MOTION_DDOT":0}]
